$GPGGA,010000.00,3123.4567,N,12130.1234,E,1,08,1.0,100.0,M,0.0,M,,*4F
$GPRMC,010000.00,A,3123.4567,N,12130.1234,E,10.5,180.0,010524,,,A*6E
$GPGGA,010001.00,3123.4568,N,12130.1235,E,1,08,1.0,100.1,M,0.0,M,,*4E
$GPRMC,010001.00,A,3123.4568,N,12130.1235,E,10.6,180.5,010524,,,A*6F
$GPGGA,010002.00,3123.4569,N,12130.1236,E,1,08,1.0,100.2,M,0.0,M,,*4D
$GPRMC,010002.00,A,3123.4569,N,12130.1236,E,10.7,181.0,010524,,,A*6C
$GPGGA,010003.00,3130.0000,N,12145.0000,E,1,08,1.0,150.0,M,0.0,M,,*5A
$GPRMC,010003.00,A,3130.0000,N,12145.0000,E,50.0,90.0,010524,,,A*5B
$GPGGA,010004.00,3130.0001,N,12145.0001,E,1,08,1.0,150.1,M,0.0,M,,*5B
$GPRMC,010004.00,A,3130.0001,N,12145.0001,E,10.8,180.0,010524,,,A*5C
$GPGGA,010005.00,3130.0002,N,12145.0002,E,1,08,1.0,150.2,M,0.0,M,,*5C
$GPRMC,010005.00,A,3130.0002,N,12145.0002,E,10.9,179.5,010524,,,A*5D
$GPGGA,011500.00,3123.4570,N,12130.1237,E,1,08,1.0,100.3,M,0.0,M,,*4C
$GPRMC,011500.00,A,3123.4570,N,12130.1237,E,11.0,179.0,010524,,,A*6B
$GPGGA,011501.00,3123.4571,N,12130.1238,E,1,08,1.0,100.4,M,0.0,M,,*4B
$GPRMC,011501.00,A,3123.4571,N,12130.1238,E,11.1,178.5,010524,,,A*6A
