{
    "type": "FeatureCollection",
    "name": "暴雨后积水点位",
    "crs": {
        "type": "name",
        "properties": {
            "name": "urn:ogc:def:crs:OGC:1.3:CRS84"
        }
    },
    "features": [
        {
            "type": "Feature",
            "properties": {
                "积水深度": 25,
                "积水半径": 60,
                "发生时间": "2024-05-01 07:00:00",
                "严重程度": "严重",
                "街区": "中心城区",
                "描述": "人民路与解放路交叉口积水"
            },
            "geometry": {
                "type": "Point",
                "coordinates": [118.805, 31.005]
            }
        },
        {
            "type": "Feature",
            "properties": {
                "积水深度": 40,
                "积水半径": 80,
                "发生时间": "2024-05-01 06:30:00",
                "严重程度": "特别严重",
                "街区": "北部新城",
                "描述": "开发区大道南段大面积积水"
            },
            "geometry": {
                "type": "Point",
                "coordinates": [118.902, 31.102]
            }
        },
        {
            "type": "Feature",
            "properties": {
                "积水深度": 18,
                "积水半径": 50,
                "发生时间": "2024-05-01 07:15:00",
                "严重程度": "中等",
                "街区": "中心城区",
                "描述": "市政广场附近积水"
            },
            "geometry": {
                "type": "Point",
                "coordinates": [118.795, 30.995]
            }
        },
        {
            "type": "Feature",
            "properties": {
                "积水深度": 35,
                "积水半径": 70,
                "发生时间": "2024-05-01 06:45:00",
                "严重程度": "严重",
                "街区": "东部工业区",
                "描述": "工业园区北路积水较深"
            },
            "geometry": {
                "type": "Point",
                "coordinates": [118.948, 31.045]
            }
        }
    ]
}
