{
  "type": "FeatureCollection",
  "name": "公园夜跑路线安全_夜间采样点",
  "export_time": "2026-06-20T07:38:56.750359",
  "export_by": "阿宁",
  "crs": {
    "type": "name",
    "properties": {
      "name": "urn:ogc:def:crs:OGC:1.3:CRS84"
    }
  },
  "features": [
    {
      "type": "Feature",
      "geometry": {
        "type": "Point",
        "coordinates": [
          116.47,
          39.99
        ]
      },
      "properties": {
        "id": 1,
        "point_code": "P819007",
        "original_row": 2,
        "street_name": "望京街道",
        "second_street": null,
        "is_boundary": false,
        "boundary_status": "confirmed",
        "safety_level": "high",
        "lighting": "良好",
        "complaint_codes": "TS-2026-001",
        "remark": "望京公园正门(已安装路灯)",
        "process_status": "complaint_added",
        "needs_review": false
      }
    },
    {
      "type": "Feature",
      "geometry": {
        "type": "Point",
        "coordinates": [
          116.4785,
          39.9925
        ]
      },
      "properties": {
        "id": 2,
        "point_code": "P004687",
        "original_row": 3,
        "street_name": "东湖街道",
        "second_street": null,
        "is_boundary": false,
        "boundary_status": "confirmed",
        "safety_level": "medium",
        "lighting": "昏暗",
        "complaint_codes": "TS-2026-002",
        "remark": "望京东湖交界路口",
        "process_status": "complaint_added",
        "needs_review": false
      }
    },
    {
      "type": "Feature",
      "geometry": {
        "type": "Point",
        "coordinates": [
          116.485,
          39.995
        ]
      },
      "properties": {
        "id": 3,
        "point_code": "P238055",
        "original_row": 4,
        "street_name": "东湖街道",
        "second_street": null,
        "is_boundary": false,
        "boundary_status": "confirmed",
        "safety_level": "low",
        "lighting": "良好",
        "complaint_codes": "TS-2026-003",
        "remark": "东湖街道健身区",
        "process_status": "complaint_added",
        "needs_review": false
      }
    },
    {
      "type": "Feature",
      "geometry": {
        "type": "Point",
        "coordinates": [
          116.465,
          39.985
        ]
      },
      "properties": {
        "id": 4,
        "point_code": "P922277",
        "original_row": 5,
        "street_name": "望京街道",
        "second_street": null,
        "is_boundary": true,
        "boundary_status": "confirmed",
        "safety_level": "medium",
        "lighting": "昏暗",
        "complaint_codes": "TS-2026-004",
        "remark": "花家地北门口",
        "process_status": "boundary_review",
        "needs_review": false
      }
    },
    {
      "type": "Feature",
      "geometry": {
        "type": "Point",
        "coordinates": [
          116.46,
          39.98
        ]
      },
      "properties": {
        "id": 5,
        "point_code": "P084593",
        "original_row": 6,
        "street_name": "花家地街道",
        "second_street": null,
        "is_boundary": false,
        "boundary_status": "confirmed",
        "safety_level": "high",
        "lighting": "无灯",
        "complaint_codes": "TS-2026-005",
        "remark": "花家地地下通道入口",
        "process_status": "complaint_added",
        "needs_review": false
      }
    },
    {
      "type": "Feature",
      "geometry": {
        "type": "Point",
        "coordinates": [
          116.475,
          39.9875
        ]
      },
      "properties": {
        "id": 6,
        "point_code": "P694283",
        "original_row": 7,
        "street_name": "望京街道",
        "second_street": null,
        "is_boundary": false,
        "boundary_status": "confirmed",
        "safety_level": "low",
        "lighting": "良好",
        "complaint_codes": "TS-2026-006",
        "remark": "望京花家地边界拐角处",
        "process_status": "complaint_added",
        "needs_review": false
      }
    },
    {
      "type": "Feature",
      "geometry": {
        "type": "Point",
        "coordinates": [
          116.42,
          40.0
        ]
      },
      "properties": {
        "id": 7,
        "point_code": "P648336",
        "original_row": 8,
        "street_name": "大屯街道",
        "second_street": null,
        "is_boundary": false,
        "boundary_status": "confirmed",
        "safety_level": "medium",
        "lighting": "良好",
        "complaint_codes": "TS-2026-007",
        "remark": "大屯街道北园",
        "process_status": "complaint_added",
        "needs_review": false
      }
    },
    {
      "type": "Feature",
      "geometry": {
        "type": "Point",
        "coordinates": [
          116.445,
          39.995
        ]
      },
      "properties": {
        "id": 8,
        "point_code": "P153708",
        "original_row": 9,
        "street_name": "花家地街道",
        "second_street": null,
        "is_boundary": true,
        "boundary_status": "confirmed",
        "safety_level": "high",
        "lighting": "昏暗",
        "complaint_codes": "TS-2026-008",
        "remark": "大屯望京交界桥底",
        "process_status": "boundary_review",
        "needs_review": false
      }
    }
  ],
  "summary": {
    "total": 8,
    "boundary_points": 2,
    "pending_review": 0,
    "empty_streets": 0
  }
}