<?xml version="1.0" encoding="UTF-8"?>
<gpx xmlns="http://www.topografix.com/GPX/1/1" version="1.1" creator="track-cleaner-sample">
  <trk>
    <name>计划路线 - 香山</name>
    <trkseg>
      <trkpt lat="39.9945" lon="116.2080">
        <ele>100.0</ele>
        <time>2024-10-15T08:00:00Z</time>
      </trkpt>
      <trkpt lat="39.9960" lon="116.2095">
        <ele>180.0</ele>
        <time>2024-10-15T08:04:00Z</time>
      </trkpt>
      <trkpt lat="39.9975" lon="116.2110">
        <ele>300.0</ele>
        <time>2024-10-15T08:08:00Z</time>
      </trkpt>
      <trkpt lat="39.9990" lon="116.2125">
        <ele>400.0</ele>
        <time>2024-10-15T08:12:00Z</time>
      </trkpt>
      <trkpt lat="40.0005" lon="116.2140">
        <ele>450.0</ele>
        <time>2024-10-15T08:16:00Z</time>
      </trkpt>
      <trkpt lat="40.0015" lon="116.2150">
        <ele>500.0</ele>
        <time>2024-10-15T08:18:00Z</time>
      </trkpt>
      <trkpt lat="40.0025" lon="116.2160">
        <ele>550.0</ele>
        <time>2024-10-15T08:20:00Z</time>
      </trkpt>
    </trkseg>
  </trk>
</gpx>
