<?xml version="1.0" encoding="UTF-8"?>
<gpx xmlns="http://www.topografix.com/GPX/1/1" version="1.1" creator="track-cleaner-sample">
  <trk>
    <name>示例徒步轨迹 - 香山</name>
    <trkseg>
      <trkpt lat="39.9945" lon="116.2080">
        <ele>100.0</ele>
        <time>2024-10-15T08:00:00Z</time>
      </trkpt>
      <trkpt lat="39.9955" lon="116.2090">
        <ele>150.0</ele>
        <time>2024-10-15T08:02:30Z</time>
      </trkpt>
      <trkpt lat="39.9955" lon="116.2090">
        <ele>150.0</ele>
        <time>2024-10-15T08:02:30Z</time>
      </trkpt>
      <trkpt lat="39.9965" lon="116.2100">
        <ele>200.0</ele>
        <time>2024-10-15T08:05:00Z</time>
      </trkpt>
      <trkpt lat="39.9975" lon="116.2110">
        <ele>500.0</ele>
        <time>2024-10-15T08:07:30Z</time>
      </trkpt>
      <trkpt lat="39.9985" lon="116.2120">
        <ele>250.0</ele>
        <time>2024-10-15T08:10:00Z</time>
      </trkpt>
      <trkpt lat="39.9995" lon="116.2130">
        <ele>300.0</ele>
        <time>2024-10-15T08:12:30Z</time>
      </trkpt>
      <trkpt lat="40.0005" lon="116.2140">
        <ele>350.0</ele>
        <time>2024-10-15T09:00:00Z</time>
      </trkpt>
      <trkpt lat="40.0015" lon="116.2150">
        <ele>400.0</ele>
        <time>2024-10-15T09:02:30Z</time>
      </trkpt>
      <trkpt lat="40.0025" lon="116.2160">
        <ele>450.0</ele>
        <time>2024-10-15T09:05:00Z</time>
      </trkpt>
    </trkseg>
  </trk>
</gpx>
